STARLINK-31918          
1 60037U 24111X   26068.34409352 -.00000798  00000+0 -14833-4 0  9995
2 60037  53.1608  77.0086 0001396  95.6385 264.4775 15.30187059 98915
NUSAT-48 (HENRIETTA LE*)
1 60498U 24149AG  26068.80506098  .00012988  00000+0  45212-3 0  9999
2 60498  97.3923 150.8264 0002754 263.3026  96.7901 15.29812597 86946
